#dP2023  6  8  0  0  0.00000000      96 __u+U ITR00 FIT  IAC
## 2265 345600.00000000   900.00000000 60103 0.0000000000000
+  119   C06C07C08C09C10C11C12C13C14C16C19C20C21C22C23C24C25
+        C26C27C28C29C30C32C33C34C35C36C37C38C39C40C41C42C43
+        C44C45C46E02E03E04E05E07E08E09E10E11E12E13E14E15E18
+        E19E21E24E25E26E27E30E31E33E34E36G01G02G03G04G05G06
+        G07G08G09G10G11G12G13G14G15G16G17G18G19G20G21G22G23
+        G24G25G26G27G28G29G30G31G32J02J03J04R01R02R03R04R05
+        R07R08R09R11R12R13R14R15R16R17R18R19R20R21R22R24R25
++         9  9  9  9  7  8  7  8  5  9  8  6  6  8  6  4  6
++         6  7  6  6  6  6  6  8  6  6  6  9  8  8  6  6  5
++         7  6  7  6  6  5  6  5  5  5  5  5  6  5  5  6  6
++         7  6  5  6  5  6  6  5  5  6  7  5  6  5  5  6  5
++         6  5  5  6  4  6  4  5  5  6  5  5  5  6  6  6  6
++         4  5  5  6  4  5  5  5  5  7  7  7  6  7  7  7  6
++         6  7  6  6  6  6  6  6  5  6  6  8  7  6  6  7  6
%c M  cc GPS ccc cccc cccc cccc cccc ccccc ccccc ccccc ccccc
%c cc cc ccc ccc cccc cccc cccc cccc ccccc ccccc ccccc ccccc
%f  0.0000000  0.000000000  0.00000000000  0.000000000000000
%f  0.0000000  0.000000000  0.00000000000  0.000000000000000
%i    0    0    0    0      0      0      0      0         0
%i    0    0    0    0      0      0      0      0         0
/* INFORMATION & ANALYSIS CENTER (IAC)      ULTRA-RAPID DATA
/* S/V CLOCKS ARE ALIGNED TO GNSS TIME                      
/* G:C1WC2W R:C1PC2P E:C1XC5X C:C2IC6I J:C1CC2S             
/* PCV:IGS20_2247 OL/AL:FES2004  NONE     YN ORB:CoN CLK:CoN
*  2023 06 08 23 30  0.00000000
PC06 -11345.018857  40373.648109  -2274.602253   -181.055482
PC07  -3595.761273  29209.672350  30300.380144   -143.441962
PC08 -17311.947469  23745.614598 -30327.586527    464.671162
PC09  -5326.674156  40717.098563   8522.291650    557.082137
PC10   5046.594898  32115.930732  27404.565760    -80.686654
PC11   7188.533035 -25249.912984  -9371.171305    663.845784
PC12  14695.449438  -9338.427293 -21775.589641    698.669263
PC13  -8790.037599  24677.174034 -32966.846234    292.304886
PC14   5491.156217 -14942.101975  22933.133578    380.994690
PC16 -12474.240870  39833.186225  -4484.502225     49.976233
PC19   4947.179082  18696.501307 -20101.974712   -920.523188
PC20 -13212.197859   9960.735515 -22452.490803    515.639925
PC21  24888.335787   5597.016331  11367.259038   -921.643827
PC22  21178.404738  17163.447768  -6051.896861   -449.805945
PC23 -12321.984949 -11463.163721 -22250.612609   -951.988479
PC24  22526.418745 -15999.197655  -3846.634893     40.543500
PC25   5812.740954 -19510.645987 -19085.039915    143.402855
PC26  24681.082867  -4646.875401  12119.114259   -132.030725
PC27 -15930.218025   -331.907816  22885.246656    152.345405
PC28 -11539.787556 -18868.570501  17013.360540    113.075016
PC29    413.657592  27901.104320    317.791204    131.467772
PC30 -11388.503399  19045.459447  16896.992508     -1.018513
PC32 -24923.626391  -5462.593985 -11263.549536   -551.212816
PC33  -4882.057829 -18654.069150  20169.425004   -892.446304
PC34  10810.208609 -20178.231194 -15990.807484    188.893593
PC35  12029.607992  18937.449651 -16589.078361    611.619699
PC36  -7050.804847  19505.410482  18698.227266   -394.118038
PC37 -24488.282645   3209.631840 -12994.718875   -784.967567
PC38 -23834.943022  25321.424685 -23922.309850     83.838427
PC39 -13185.821826  38660.316455  -9955.031424     -3.238332
PC40  -6357.029958  24457.672635  33798.185365    -25.663163
PC41 -20772.896610 -17369.931318   6771.616093   -925.408533
PC42  14531.005717  -9028.019068  22098.377631   -657.253689
PC43    234.784506 -27892.304763  -1169.144678     25.292010
PC44  16096.907037    -83.350118 -22813.010944    132.197889
PC45  12701.924048  11053.072060  22255.186888   -107.960084
PC46 -21796.602891  16642.415667   5269.187905    -60.111019
PE02   2642.460723  16757.082012  24253.165948     42.937907
PE03   7452.024867  27282.955532  -8757.023346    -24.511805
PE04 -18600.092975 -20977.314583  -9477.001825   -140.557332
PE05  -8317.418946  17679.841080 -22228.263689    -59.775699
PE07  19140.219991   2473.369185  22458.209078    -51.242997
PE08  18491.172457  21199.980999   9240.135435    -95.993892
PE09 -19057.854115  -2669.906531 -22478.378447    -43.456225
PE10 -17058.839711  -1935.759273  24098.449194   -539.800839
PE11 -20480.744412   9069.866000  19324.746744   2166.514258
PE12 -11406.915560 -11803.804181  24622.203621   -572.182243
PE13  20305.351614  -8378.261288 -19850.330981    -19.242753
PE14  -9180.333580 -22564.777414   -135.333269    248.650456
PE15  11139.332263  12057.453461 -24633.116755    -28.016316
PE18  18617.912197  24206.894693 -10091.691385    159.770194
PE19  -5364.743733 -26902.201537  11131.591331  -2343.456873
PE21  17985.904997 -12791.816672 -19725.113079   -533.885907
PE24 -29465.741789    622.328028   2839.427834   -144.418722
PE25 -18304.316607  12644.971287  19530.811680   -606.438078
PE26  17171.768991 -23954.170416  -2750.270642    128.485809
PE27  29360.431321  -1203.106186  -3536.684728    -69.938304
PE30  22893.850890  11338.166800  14933.261299   -239.945220
PE31 -23328.916218 -10960.040044 -14546.248297   -525.491287
PE33   4539.676231 -25215.739332  14827.541756   -443.405040
PE34  -4355.960304  25174.262243 -14965.877876    -49.800779
PE36 -17458.503794  23638.326369   3502.243920    -68.415274
PG01 -14074.235274  22226.475606  -2102.160517    179.611383
PG02      0.000000      0.000000      0.000000 999999.999999
PG03 -11190.543925  12906.371692 -20439.403799   -277.019926
PG04  -3417.614115  20566.861933 -16375.221193     63.161545
PG05  24431.034374  -5417.362645   8896.145803   -130.369652
PG06  12520.381012   7494.693944 -22136.461102    585.923162
PG07  -1909.635881  21849.501018  15090.353970    157.338581
PG08 -11699.981859  10182.144026  21449.442914   -126.456909
PG09   5728.067054  24502.259451  -8504.054493   -140.206780
PG10 -19483.820659 -11240.412764  14545.738834    -40.359104
PG11  19627.948990  -7051.564305 -16416.686713   -228.034409
PG12  14940.936926 -11193.137278 -19137.908980   -386.215705
PG13  15093.360315  -1534.562906  21638.994110    531.387579
PG14  16506.972418  13347.286507  16071.449077     84.344099
PG15  10271.988915 -12276.376117  20705.430234     47.096686
PG16 -26101.294701   -264.659299   5761.507867   -493.375858
PG17  13530.760540  21750.119421  -6380.003332    717.738132
PG18    235.856278 -20311.479297  17024.377181   -299.959229
PG19  16011.834933  16137.395673 -14209.936249    328.004582
PG20  26373.890198  -1931.871412   -726.954936    429.057499
PG21 -17021.335651  18132.130717   8503.131647    153.261869
PG22 -16668.069841 -13127.661540 -15622.700446    494.835027
PG23  -7402.294275 -14590.598836  20959.628695     31.397140
PG24  14658.122303 -21614.088587   3006.860568   -218.187831
PG25   1438.947861 -15461.792325 -21858.260991    448.517316
PG26 -25489.630700  -4975.232736  -6486.967310    239.442753
PG27 -16748.450790  -2426.295956  20321.481198     20.376592
PG28 -12000.482618  -9443.932755 -21752.926493     82.660163
PG29  -1861.874033 -24296.872087 -10509.973653   -602.203822
PG30   7180.273072  15760.935513  20185.377177   -512.248648
PG31 -18578.801836   2655.461131 -19125.793781   -217.768562
PG32 -16150.810822 -19364.288636  -8477.525774   -495.889923
PJ02 -30002.678694  22728.618692  24013.095218     -0.406343
PJ03 -29717.668379  27367.226197  16984.199523      6.037383
PJ04 -26224.329000  20131.645217 -20997.514566     95.197926
PR01   8468.101202  17271.116129 -16757.883148     59.050418
PR02  19202.448340  16740.463830    197.215692    -22.734869
PR03  18707.026531   5991.481440  16289.956303     79.324672
PR04   7790.401677  -7482.892333  23139.705678    190.438904
PR05  -7219.074937 -17166.822351  17456.735462    113.867148
PR07 -18427.677028  -5500.770703 -16740.875109     57.627615
PR08  -7663.298227   7713.140899 -23013.375041    -71.195433
PR09 -14912.989789  -4955.603751 -20045.663048    124.756487
PR11 -20262.270465  12212.062915   9526.570024    -74.913838
PR12  -3395.311529  12422.372332  22047.965689     27.974623
PR13  13151.841210   5916.049159  21029.218809    -35.894036
PR14  24056.862825  -5254.944610   6714.865301     24.749721
PR15  19627.533424 -12361.815191 -10598.994245     88.745410
PR16   3731.657960 -12385.706107 -21979.172237     15.426465
PR17  11249.122990  -4010.331900 -22533.362158    637.298953
PR18  10005.893788 -19581.765431 -12963.930144     85.636714
PR19   5054.876960 -24931.289610   1857.281143   -235.597572
PR20  -5261.186738 -15473.177174  19600.543997    -94.323157
PR21 -11338.058338   5555.131538  22161.154871    -13.775245
PR22 -10653.810811  19772.244179  12100.660934     79.826688
PR24   6466.471018  14791.436078 -19746.082996    -10.832277
PR25 -11708.768238   3343.871987  22416.513113     60.135338
EOF
